start=new Date('2021-10-12T00:00:00.000Z').valueOf();
sats=[{"CLASSIFICATION_TYPE":"U","OBJECT_ID":"2019-074AC","BSTAR":"0.00034400000000","EPHEMERIS_TYPE":"0","LAUNCH_DATE":"2019-11-11","SITE":"AFETR","MEAN_MOTION":"15.07629819","RA_OF_ASC_NODE":"232.3089","EPOCH":"2021-10-11T14:07:50.494368","ECCENTRICITY":"0.00012760","ELEMENT_SET_NO":"999","PERIOD":"95.514","TLE_LINE2":"2 44739  52.9982 232.3089 0001276  68.1837 291.9287 15.07629819105798","MEAN_MOTION_DDOT":"0.0000000000000","FILE":"3157068","APOAPSIS":"544.330","TIME_SYSTEM":"UTC","OBJECT_TYPE":"PAYLOAD","REF_FRAME":"TEME","OBJECT_NAME":"STARLINK-1034","REV_AT_EPOCH":"10579","SEMIMAJOR_AXIS":"6921.582","MEAN_ANOMALY":"291.9287","RCS_SIZE":"LARGE","MEAN_ELEMENT_THEORY":"SGP4","ARG_OF_PERICENTER":"68.1837","CENTER_NAME":"EARTH","INCLINATION":"52.9982","NORAD_CAT_ID":"44739","COUNTRY_CODE":"US","PERIAPSIS":"542.564","DECAY_DATE":null,"GP_ID":"186893056","TLE_LINE1":"1 44739U 19074AC  21284.58877887  .00005017  00000-0  34400-3 0  9990","MEAN_MOTION_DOT":"0.00005017"},{"REV_AT_EPOCH":"10579","SEMIMAJOR_AXIS":"6925.367","OBJECT_NAME":"STARLINK-1035","REF_FRAME":"TEME","OBJECT_TYPE":"PAYLOAD","TIME_SYSTEM":"UTC","APOAPSIS":"548.267","FILE":"3157068","MEAN_MOTION_DDOT":"0.0000000000000","PERIOD":"95.593","ELEMENT_SET_NO":"999","TLE_LINE2":"2 44740  53.0544 234.6078 0001495  64.5988 295.5156 15.06394134105792","RA_OF_ASC_NODE":"234.6078","ECCENTRICITY":"0.00014950","EPOCH":"2021-10-11T14:18:45.293184","LAUNCH_DATE":"2019-11-11","SITE":"AFETR","MEAN_MOTION":"15.06394134","BSTAR":"0.00000624020000","EPHEMERIS_TYPE":"0","CLASSIFICATION_TYPE":"U","OBJECT_ID":"2019-074AD","TLE_LINE1":"1 44740U 19074AD  21284.59635756 -.00000189  00000-0  62402-5 0  9991","MEAN_MOTION_DOT":"-0.00000189","GP_ID":"186893789","PERIAPSIS":"546.196","DECAY_DATE":null,"NORAD_CAT_ID":"44740","COUNTRY_CODE":"US","INCLINATION":"53.0544","CENTER_NAME":"EARTH","ARG_OF_PERICENTER":"64.5988","MEAN_ELEMENT_THEORY":"SGP4","RCS_SIZE":"LARGE","MEAN_ANOMALY":"295.5156"},{"RCS_SIZE":"LARGE","MEAN_ANOMALY":"287.2710","MEAN_MOTION_DOT":"0.00002285","TLE_LINE1":"1 44741U 19074AE  21284.27567716  .00002285  00000-0  17223-3 0  9994","GP_ID":"186894544","DECAY_DATE":null,"PERIAPSIS":"546.260","COUNTRY_CODE":"US","NORAD_CAT_ID":"44741","INCLINATION":"53.0536","CENTER_NAME":"EARTH","ARG_OF_PERICENTER":"72.8428","MEAN_ELEMENT_THEORY":"SGP4","TIME_SYSTEM":"UTC","APOAPSIS":"548.149","FILE":"3157068","MEAN_MOTION_DDOT":"0.0000000000000","TLE_LINE2":"2 44741  53.0536 236.0518 0001364  72.8428 287.2710 15.06403006105743","ELEMENT_SET_NO":"999","PERIOD":"95.592","ECCENTRICITY":"0.00013640","EPOCH":"2021-10-11T06:36:58.506624","RA_OF_ASC_NODE":"236.0518","MEAN_MOTION":"15.06403006","SITE":"AFETR","LAUNCH_DATE":"2019-11-11","EPHEMERIS_TYPE":"0","BSTAR":"0.00017223000000","OBJECT_ID":"2019-074AE","CLASSIFICATION_TYPE":"U","SEMIMAJOR_AXIS":"6925.339","REV_AT_EPOCH":"10574","OBJECT_NAME":"STARLINK-1036","REF_FRAME":"TEME","OBJECT_TYPE":"PAYLOAD"},{"ELEMENT_SET_NO":"999","PERIOD":"95.442","TLE_LINE2":"2 44742  52.9967 228.9990 0002474  74.4673 285.6589 15.08764405105849","MEAN_MOTION_DDOT":"0.0000000000000","FILE":"3157068","APOAPSIS":"541.688","TIME_SYSTEM":"UTC","CLASSIFICATION_TYPE":"U","OBJECT_ID":"2019-074AF","BSTAR":"0.00039889000000","EPHEMERIS_TYPE":"0","LAUNCH_DATE":"2019-11-11","SITE":"AFETR","MEAN_MOTION":"15.08764405","RA_OF_ASC_NODE":"228.9990","EPOCH":"2021-10-11T13:50:02.007168","ECCENTRICITY":"0.00024740","OBJECT_NAME":"STARLINK-1037","SEMIMAJOR_AXIS":"6918.111","REV_AT_EPOCH":"10584","OBJECT_TYPE":"PAYLOAD","REF_FRAME":"TEME","RCS_SIZE":"LARGE","MEAN_ANOMALY":"285.6589","NORAD_CAT_ID":"44742","COUNTRY_CODE":"US","PERIAPSIS":"538.265","DECAY_DATE":null,"GP_ID":"186893305","TLE_LINE1":"1 44742U 19074AF  21284.57641212  .00006053  00000-0  39889-3 0  9991","MEAN_MOTION_DOT":"0.00006053","MEAN_ELEMENT_THEORY":"SGP4","ARG_OF_PERICENTER":"74.4673","INCLINATION":"52.9967","CENTER_NAME":"EARTH"},{"OBJECT_ID":"2019-074AG","CLASSIFICATION_TYPE":"U","EPHEMERIS_TYPE":"0","BSTAR":"0.00014093000000","MEAN_MOTION":"15.06402185","SITE":"AFETR","LAUNCH_DATE":"2019-11-11","ECCENTRICITY":"0.00015240","EPOCH":"2021-10-11T09:24:10.170432","RA_OF_ASC_NODE":"255.5350","TLE_LINE2":"2 44743  53.0526 255.5350 0001524  70.5924 289.5230 15.06402185105578","PERIOD":"95.592","ELEMENT_SET_NO":"999","FILE":"3157068","MEAN_MOTION_DDOT":"0.0000000000000","APOAPSIS":"548.262","TIME_SYSTEM":"UTC","OBJECT_TYPE":"PAYLOAD","REF_FRAME":"TEME","OBJECT_NAME":"STARLINK-1038","REV_AT_EPOCH":"10557","SEMIMAJOR_AXIS":"6925.342","MEAN_ANOMALY":"289.5230","RCS_SIZE":"LARGE","MEAN_ELEMENT_THEORY":"SGP4","ARG_OF_PERICENTER":"70.5924","CENTER_NAME":"EARTH","INCLINATION":"53.0526","COUNTRY_CODE":"US","NORAD_CAT_ID":"44743","DECAY_DATE":null,"PERIAPSIS":"546.151","GP_ID":"186893556","MEAN_MOTION_DOT":"0.00001818","TLE_LINE1":"1 44743U 19074AG  21284.39178438  .00001818  00000-0  14093-3 0  9991"},{"SEMIMAJOR_AXIS":"6925.362","REV_AT_EPOCH":"10547","OBJECT_NAME":"STARLINK-1039","REF_FRAME":"TEME","OBJECT_TYPE":"PAYLOAD","TIME_SYSTEM":"UTC","APOAPSIS":"548.342","FILE":"3157068","MEAN_MOTION_DDOT":"0.0000000000000","PERIOD":"95.592","ELEMENT_SET_NO":"999","TLE_LINE2":"2 44744  53.0535 255.7797 0001610  69.5140 290.6022 15.06395578105478","RA_OF_ASC_NODE":"255.7797","EPOCH":"2021-10-11T08:04:33.618144","ECCENTRICITY":"0.00016100","LAUNCH_DATE":"2019-11-11","SITE":"AFETR","MEAN_MOTION":"15.06395578","BSTAR":"0.00000007020500","EPHEMERIS_TYPE":"0","CLASSIFICATION_TYPE":"U","OBJECT_ID":"2019-074AH","TLE_LINE1":"1 44744U 19074AH  21284.33650021 -.00000280  00000-0  70205-7 0  9993","MEAN_MOTION_DOT":"-0.00000280","GP_ID":"186894289","PERIAPSIS":"546.112","DECAY_DATE":null,"NORAD_CAT_ID":"44744","COUNTRY_CODE":"US","INCLINATION":"53.0535","CENTER_NAME":"EARTH","ARG_OF_PERICENTER":"69.5140","MEAN_ELEMENT_THEORY":"SGP4","RCS_SIZE":"LARGE","MEAN_ANOMALY":"290.6022"},{"RCS_SIZE":"LARGE","MEAN_ANOMALY":"288.9603","NORAD_CAT_ID":"44746","COUNTRY_CODE":"US","PERIAPSIS":"546.168","DECAY_DATE":null,"GP_ID":"186894045","TLE_LINE1":"1 44746U 19074AK  21284.32174882  .00002001  00000-0  15318-3 0  9992","MEAN_MOTION_DOT":"0.00002001","MEAN_ELEMENT_THEORY":"SGP4","ARG_OF_PERICENTER":"71.1547","CENTER_NAME":"EARTH","INCLINATION":"53.0534","ELEMENT_SET_NO":"999","PERIOD":"95.592","TLE_LINE2":"2 44746  53.0534 255.8309 0001494  71.1547 288.9603 15.06403462105476","MEAN_MOTION_DDOT":"0.0000000000000","FILE":"3157068","APOAPSIS":"548.238","TIME_SYSTEM":"UTC","CLASSIFICATION_TYPE":"U","OBJECT_ID":"2019-074AK","BSTAR":"0.00015318000000","EPHEMERIS_TYPE":"0","LAUNCH_DATE":"2019-11-11","SITE":"AFETR","MEAN_MOTION":"15.06403462","RA_OF_ASC_NODE":"255.8309","EPOCH":"2021-10-11T07:43:19.098048","ECCENTRICITY":"0.00014940","OBJECT_NAME":"STARLINK-1041","SEMIMAJOR_AXIS":"6925.338","REV_AT_EPOCH":"10547","OBJECT_TYPE":"PAYLOAD","REF_FRAME":"TEME"},{"APOAPSIS":"548.127","TIME_SYSTEM":"UTC","TLE_LINE2":"2 44747  53.0524 254.5259 0001291  73.8606 286.2525 15.06393584105529","PERIOD":"95.593","ELEMENT_SET_NO":"999","MEAN_MOTION_DDOT":"0.0000000000000","FILE":"3157563","MEAN_MOTION":"15.06393584","SITE":"AFETR","LAUNCH_DATE":"2019-11-11","EPOCH":"2021-10-11T14:47:56.729184","ECCENTRICITY":"0.00012910","RA_OF_ASC_NODE":"254.5259","OBJECT_ID":"2019-074AL","CLASSIFICATION_TYPE":"U","EPHEMERIS_TYPE":"0","BSTAR":"0.00002481300000","SEMIMAJOR_AXIS":"6925.368","REV_AT_EPOCH":"10552","OBJECT_NAME":"STARLINK-1042","OBJECT_TYPE":"PAYLOAD","REF_FRAME":"TEME","RCS_SIZE":"LARGE","MEAN_ANOMALY":"286.2525","GP_ID":"186927009","MEAN_MOTION_DOT":"0.00000088","TLE_LINE1":"1 44747U 19074AL  21284.61662881  .00000088  00000-0  24813-4 0  9990","COUNTRY_CODE":"US","NORAD_CAT_ID":"44747","DECAY_DATE":null,"PERIAPSIS":"546.339","ARG_OF_PERICENTER":"73.8606","CENTER_NAME":"EARTH","INCLINATION":"53.0524","MEAN_ELEMENT_THEORY":"SGP4"},{"ARG_OF_PERICENTER":"69.8281","INCLINATION":"53.0530","CENTER_NAME":"EARTH","MEAN_ELEMENT_THEORY":"SGP4","GP_ID":"186928260","MEAN_MOTION_DOT":"0.00002834","TLE_LINE1":"1 44748U 19074AM  21284.64611482  .00002834  00000-0  20908-3 0  9996","COUNTRY_CODE":"US","NORAD_CAT_ID":"44748","DECAY_DATE":null,"PERIAPSIS":"546.032","MEAN_ANOMALY":"290.2892","RCS_SIZE":"LARGE","OBJECT_TYPE":"PAYLOAD","REF_FRAME":"TEME","REV_AT_EPOCH":"10552","SEMIMAJOR_AXIS":"6925.347","OBJECT_NAME":"STARLINK-1043","SITE":"AFETR","MEAN_MOTION":"15.06400583","LAUNCH_DATE":"2019-11-11","EPOCH":"2021-10-11T15:30:24.320448","ECCENTRICITY":"0.00017040","RA_OF_ASC_NODE":"254.3837","OBJECT_ID":"2019-074AM","CLASSIFICATION_TYPE":"U","EPHEMERIS_TYPE":"0","BSTAR":"0.00020908000000","APOAPSIS":"548.392","TIME_SYSTEM":"UTC","TLE_LINE2":"2 44748  53.0530 254.3837 0001704  69.8281 290.2892 15.06400583105520","ELEMENT_SET_NO":"999","PERIOD":"95.592","MEAN_MOTION_DDOT":"0.0000000000000","FILE":"3157563"},{"OBJECT_NAME":"STARLINK-1044","REV_AT_EPOCH":"10670","SEMIMAJOR_AXIS":"6653.618","REF_FRAME":"TEME","OBJECT_TYPE":"PAYLOAD","MEAN_MOTION_DDOT":"0.0012708000000","FILE":"3157563","TLE_LINE2":"2 44749  53.0472 171.3470 0010749 265.6423  94.3379 15.99616741106701","ELEMENT_SET_NO":"999","PERIOD":"90.022","TIME_SYSTEM":"UTC","APOAPSIS":"282.635","EPHEMERIS_TYPE":"0","BSTAR":"0.00296010000000","OBJECT_ID":"2019-074AN","CLASSIFICATION_TYPE":"U","EPOCH":"2021-10-11T21:45:17.553888","ECCENTRICITY":"0.00107490","RA_OF_ASC_NODE":"171.3470","MEAN_MOTION":"15.99616741","SITE":"AFETR","LAUNCH_DATE":"2019-11-11","DECAY_DATE":null,"PERIAPSIS":"268.331","COUNTRY_CODE":"US","NORAD_CAT_ID":"44749","MEAN_MOTION_DOT":"0.01501886","TLE_LINE1":"1 44749U 19074AN  21284.90645317  .01501886  12708-2  29601-2 0  9990","GP_ID":"186928011","MEAN_ELEMENT_THEORY":"SGP4","INCLINATION":"53.0472","CENTER_NAME":"EARTH","ARG_OF_PERICENTER":"265.6423","RCS_SIZE":"LARGE","MEAN_ANOMALY":"94.3379"}];
